[{"OBJECT_NAME":"STARLINK-4288","OBJECT_ID":"2022-076V","EPOCH":"2026-03-09T11:04:10.025760","MEAN_MOTION":15.088401,"ECCENTRICITY":0.00014259,"INCLINATION":53.2176,"RA_OF_ASC_NODE":95.1459,"ARG_OF_PERICENTER":94.4429,"MEAN_ANOMALY":265.6726,"EPHEMERIS_TYPE":0,"CLASSIFICATION_TYPE":"U","NORAD_CAT_ID":53005,"ELEMENT_SET_NO":999,"REV_AT_EPOCH":20281,"BSTAR":6.0562521e-5,"MEAN_MOTION_DOT":6.76e-6,"MEAN_MOTION_DDOT":0},{"OBJECT_NAME":"BREEZE-M DEB [TANK]","OBJECT_ID":"2004-022B","EPOCH":"2026-03-09T05:56:32.601120","MEAN_MOTION":6.50607245,"ECCENTRICITY":0.45003465,"INCLINATION":49.5299,"RA_OF_ASC_NODE":24.4655,"ARG_OF_PERICENTER":128.3201,"MEAN_ANOMALY":281.5139,"EPHEMERIS_TYPE":0,"CLASSIFICATION_TYPE":"U","NORAD_CAT_ID":28359,"ELEMENT_SET_NO":999,"REV_AT_EPOCH":48611,"BSTAR":0.0008325848,"MEAN_MOTION_DOT":8.251e-5,"MEAN_MOTION_DDOT":0}]
